1 44719U 19074G   20197.58334491 +.00036621 +00000-0 +25190-2 0  9999
2 44719 052.9991 088.2632 0001364 104.9591 101.6784 15.05587201001769
1 44719U 19074G   20197.91667824 -.00044541 +00000-0 -30535-2 0  9996
2 44719 052.9992 086.7682 0001399 100.2449 114.1133 15.05622670001764
1 44719U 19074G   20198.41667824 -.00016985  00000-0 -11493-2 0  9995
2 44719  52.9993  84.5227 0001252 103.2214 302.7264 15.05580192 38095
1 44719U 19074G   20198.58334491 +.00036022 +00000-0 +24806-2 0  9998
2 44719 052.9990 083.7740 0001267 107.0926 122.7035 15.05553186001764
1 44719U 19074G   20198.91667824 -.00020654 +00000-0 -14025-2 0  9992
2 44719 052.9992 082.2792 0001296 099.4722 138.0090 15.05580382001766
1 44719U 19074G   20199.25002315 -.00018090  00000-0 -12254-2 0  9991
2 44719  52.9992  80.7828 0001234  96.1144 149.1170 15.05584500 38222
1 44719U 19074G   20199.58334491 +.00035983 +00000-0 +24777-2 0  9991
2 44719 052.9994 079.2850 0001313 105.7560 147.1145 15.05557549001761
1 44719U 19074G   20199.91667824 -.00018205 +00000-0 -12334-2 0  9993
2 44719 052.9995 077.7904 0001331 097.7651 162.7966 15.05582622001816
1 44719U 19074G   20200.25001157 -.00025808  00000-0 -17580-2 0  9999
2 44719  52.9997  76.2938 0001269  95.1624 173.0861 15.05591319 38374
1 44719U 19074G   20200.58334491 +.00035378 +00000-0 +24362-2 0  9992
2 44719 052.9999 074.7960 0001346 105.1049 170.8509 15.05562283001768
1 44719U 19074G   20200.91668981 -.00016205  00000-0 -10954-2 0  9995
2 44719  52.9999  73.3013 0001346  96.8796 186.8336 15.05583921 38472
1 44719U 19074G   20201.58334491 +.00033181 +00000-0 +22866-2 0  9990
2 44719 053.0000 070.3070 0001362 106.6656 192.3873 15.05565702001767
1 44719U 19074G   20201.91667824 -.00013640  00000-0 -91867-3 0  9994
2 44719  52.9999  68.8124 0001340  98.1837 208.5701 15.05584407 38624
1 44719U 19074G   20202.66667824 -.00003951  00000-0 -25205-3 0  9994
2 44719  52.9997  65.4441 0001362 108.9836 305.0946 15.05590195 38737
1 44719U 19074G   20202.58334491 +.00030213 +00000-0 +20844-2 0  9998
2 44719 052.9997 065.8178 0001354 109.4958 212.6638 15.05570162001766
1 44719U 19074G   20202.85588025  .00000156  00000-0  29916-4 0  9996
2 44719  53.0006  64.5929 0001651 131.1945 228.9186 15.05567034 38769
1 44719U 19074G   20202.92227374 -.00001621 +00000-0 -92171-4 0  9994
2 44719 053.0005 064.2949 0001512 132.1073 228.0043 15.05554884039736
1 44719U 19074G   20203.25001157 -.00038676  00000-0 -26483-2 0  9991
2 44719  52.9991  62.8261 0001260 102.0882 235.4709 15.05600328 38828
1 44719U 19074G   20203.50002315 +.00038558 +00000-0 +26523-2 0  9998
2 44719 052.9991 061.7026 0001321 110.3316 143.0805 15.05562721001800
1 44719U 19074G   20203.91668981 -.00004689 +00000-0 -30286-3 0  9992
2 44719 052.9990 059.8338 0001347 101.7478 251.2877 15.05581197001757
1 44719U 19074G   20204.00001157  .00029729  00000-0  20517-2 0  9994
2 44719  52.9990  59.4600 0001310 100.9282 343.9746 15.05565613 38938
1 44719U 19074G   20204.58334491  .00021953  00000-0  15213-2 0  9995
2 44719  52.9988  56.8390 0001390 112.1249 256.2493 15.05575849 39026
1 44719U 19074G   20204.91667824 +.00000390 +00000-0 +45908-4 0  9999
2 44719 052.9988 055.3443 0001361 101.3816 274.7001 15.05579197001767
1 44719U 19074G   20205.25001157 -.00036899  00000-0 -25251-2 0  9990
2 44719  52.9988  53.8468 0001303 104.2639 279.5138 15.05600001 39122
1 44719U 19074G   20205.58334491 +.00016698 +00000-0 +11624-2 0  9998
2 44719 052.9991 052.3496 0001414 111.2332 280.2527 15.05581800001813
1 44719U 19074G   20205.91667824 +.00005493 +00000-0 +39587-3 0  9994
2 44719 052.9992 050.8547 0001364 100.4355 298.7620 15.05579233039224
1 44719U 19074G   20206.58335648 +.00009535 +00000-0 +67251-3 0  9994
2 44719 052.9997 047.8600 0001416 110.5171 304.1524 15.05589137001768
1 44719U 19074G   20206.91667824 +.00011432 +00000-0 +80247-3 0  9994
2 44719 052.9998 046.3652 0001357 100.4965 321.8291 15.05580534001762
1 44719U 19074G   20207.25001157 -.00029722  00000-0 -20280-2 0  9996
2 44719  53.0000  44.8675 0001315 105.7306 324.3000 15.05603037 39421
1 44719U 19074G   20207.91667824  .00018008  00000-0  12519-2 0  9997
2 44719  53.0003  41.8759 0001320 102.1799 343.2881 15.05580506 39520
1 44719U 19074G   20208.58335648 -.00006956 +00000-0 -45840-3 0  9992
2 44719 053.0003 038.8815 0001367 115.0062 345.9473 15.05603325001762
1 44719U 19074G   20208.91667824  .00025336  00000-0  17518-2 0  9994
2 44719  53.0003  37.3869 0001263 105.1953   3.4250 15.05579239 39675
1 44719U 19074G   20209.58334491 -.00045525 +00000-0 -31239-2 0  9999
2 44719 053.0001 034.3926 0001435 115.0082 009.0364 15.05598016039771
1 44719U 19074G   20209.91668981 +.00033102 +00000-0 +22824-2 0  9996
2 44719 053.0000 032.8978 0001347 105.7418 026.0731 15.05547196001815
1 44719U 19074G   20210.25001157 -.00009566  00000-0 -63851-3 0  9996
2 44719  52.9999  31.4001 0001381 113.5377  25.8829 15.05564020 39878
1 44719U 19074G   20210.58334491 -.00018412 +00000-0 -12479-2 0  9991
2 44719 052.9998 029.9038 0001478 115.2324 031.8581 15.05575438001750
1 44719U 19074G   20210.91667824 +.00040228 +00000-0 +27673-2 0  9997
2 44719 052.9997 028.4090 0001352 105.9842 048.7992 15.05540914001757
1 44719U 19074G   20211.25001157  .00038788  00000-0  26677-2 0  9997
2 44719  52.9997  26.9111 0001456 112.2247  50.2313 15.05565166 40034
1 44719U 19074G   20211.91667824  .00044712  00000-0  30688-2 0  9990
2 44719  52.9997  23.9197 0001465 103.5561  74.3311 15.05575907 40137
1 44719U 19074G   20212.58335648 -.00024835  00000-0 -16895-2 0  9990
2 44719  53.0000  20.9255 0001570 112.1358  81.2513 15.05618416 40238
1 44719U 19074G   20212.91667824 +.00007318 +00000-0 +52093-3 0  9997
2 44719 052.9999 019.4302 0001349 104.8985 096.1655 15.05575669001766
1 44719U 19074G   20213.58334491 -.00027626 +00000-0 -18838-2 0  9996
2 44719 053.0002 016.4362 0001390 115.5855 100.8601 15.05589165001756
1 44719U 19074G   20213.91667824  .00040623  00000-0  27932-2 0  9997
2 44719  53.0000  14.9408 0001254 107.2620 116.8878 15.05553284 40439
1 44719U 19074G   20214.58335648 -.00029766  00000-0 -20317-2 0  9994
2 44719  53.0002  11.9468 0001323 118.8198 120.7669 15.05590682 40535
1 44719U 19074G   20214.25002315 +.00022931 +00000-0 +15887-2 0  9991
2 44719 053.0001 013.4425 0001281 118.3887 113.5169 15.05559943001769
1 44719U 19074G   20214.91667824 +.00033518 +00000-0 +23100-2 0  9996
2 44719 052.9998 010.4515 0001186 110.9204 136.3074 15.05558324001764
1 44719U 19074G   20215.25001157 +.00029623 +00000-0 +20450-2 0  9992
2 44719 052.9999 008.9533 0001253 122.4410 132.4833 15.05557016040635
1 44719U 19074G   20215.91667824 +.00028347 +00000-0 +19578-2 0  9995
2 44719 052.9996 005.9622 0001139 113.6602 156.6466 15.05561878040738
1 44719U 19074G   20216.58334491 -.00028891 +00000-0 -19694-2 0  9995
2 44719 052.9997 002.9686 0001375 118.4163 167.2966 15.05623888001766
1 44719U 19074G   20216.91668981  .00017249  00000-0  11993-2 0  9993
2 44719  52.9995   1.4728 0001229 112.5809 180.9362 15.05604050 40883
1 44719U 19074G   20217.58335648 -.00028804  00000-0 -19647-2 0  9993
2 44719  52.9999 358.4791 0001424 114.5972 194.3955 15.05599600 40984
1 44719U 19074G   20217.91667824 +.00008033 +00000-0 +56982-3 0  9998
2 44719 052.9999 356.9834 0001305 109.6205 207.0152 15.05580945001763
1 44719U 19074G   20218.25001157  .00044053  00000-0  30253-2 0  9991
2 44719  53.0002 355.4855 0001416 119.3955 204.9540 15.05560927 41084
1 44719U 19074G   20218.58334491 -.00027792 +00000-0 -18947-2 0  9996
2 44719 053.0004 353.9902 0001383 113.6203 218.4246 15.05599578001766
1 44719U 19074G   20218.91667824 -.00001225  00000-0 -64903-4 0  9990
2 44719  53.0004 352.4943 0001259 109.3031 230.4514 15.05591585 41180
1 44719U 19074G   20219.58334491 -.00027606 +00000-0 -18817-2 0  9997
2 44719 053.0007 349.5015 0001326 114.4750 240.7019 15.05603408001751
1 44719U 19074G   20219.91668981 -.00010749  00000-0 -71935-3 0  9999
2 44719  53.0005 348.0052 0001198 111.4968 251.4549 15.05597949 41336
1 44719U 19074G   20220.58334491 -.00026702 +00000-0 -18206-2 0  9997
2 44719 053.0006 345.0126 0001357 114.9098 263.4060 15.05575068001767
1 44719U 19074G   20220.91667824 -.00018263 +00000-0 -12378-2 0  9990
2 44719 053.0003 343.5163 0001259 112.4624 273.5277 15.05570862001766
1 44719U 19074G   20221.25001157  .00043433  00000-0  29849-2 0  9995
2 44719  53.0002 342.0185 0001384 123.7234 269.9553 15.05540628 41536
1 44719U 19074G   20221.58334491 -.00024758 +00000-0 -16864-2 0  9995
2 44719 053.0001 340.5240 0001316 117.1588 284.1905 15.05570783001760
1 44719U 19074G   20221.91667824  .00025891  00000-0  17905-2 0  9995
2 44719  52.9997 339.0275 0001255 114.7739 294.2531 15.05560888 41638
1 44719U 19074G   20222.58334491 -.00021555 +00000-0 -14638-2 0  9995
2 44719 052.9995 336.0351 0001400 114.8315 309.5969 15.05602970001765
1 44719U 19074G   20222.91668981 -.00026329  00000-0 -17931-2 0  9999
2 44719  52.9993 334.5383 0001293 114.3086 317.8961 15.05610372 41786
1 44719U 19074G   20223.58334491 -.00018141  00000-0 -12283-2 0  9997
2 44719  52.9993 331.5457 0001337 114.1517 333.4358 15.05603428 41880
1 44719U 19074G   20223.91667824 -.00029290 +00000-0 -19975-2 0  9995
2 44719 052.9994 330.0488 0001244 114.1671 341.1363 15.05614145001760
1 44719U 19074G   20224.58334491 -.00014051  00000-0 -94718-3 0  9998
2 44719  52.9996 327.0562 0001386 110.6473   0.0978 15.05576096 42039
1 44719U 19074G   20224.25001157 -.00019432 +00000-0 -13176-2 0  9998
2 44719 052.9996 328.5510 0001437 120.3742 342.6607 15.05595135001812
1 44719U 19074G   20224.91667824 -.00032127 +00000-0 -21953-2 0  9998
2 44719 052.9997 325.5593 0001320 111.8550 006.5713 15.05587878001767
1 44719U 19074G   20225.58334491 -.00008738  00000-0 -58137-3 0  9999
2 44719  53.0000 322.5671 0001332 111.1766  22.6407 15.05575034 42184
1 44719U 19074G   20225.91668981 -.00034197 +00000-0 -23384-2 0  9993
2 44719 053.0000 321.0699 0001253 113.9685 027.5979 15.05591891001766
